0 METEOR 2-8 DEB
1 36862U 82025AZ  13288.25420530  .00002271  00000-0  14994-2 0   470
2 36862 082.5498 119.3777 0014332 085.2940 274.5284 14.01247208378424
0 METEOR 2-8 DEB
1 36862U 82025AZ  13292.25299881  .00002258  00000-0  14899-2 0   488
2 36862 082.5501 116.1130 0014391 070.1390 290.1101 14.01264730378986
0 METEOR 2-8 DEB
1 36862U 82025AZ  13295.25199661  .00002258  00000-0  14899-2 0   497
2 36862 082.5501 113.6632 0014391 061.4791 298.7826 14.01278163379404
